CALSPHERE 1             
1 00900U 64063C   23220.86541764  .00000755  00000+0  78761-3 0  9996
2 00900  90.1876  48.8963 0025481 201.2872 226.3869 13.74418513927980
CALSPHERE 2             
1 00902U 64063E   23219.81164250  .00000028  00000+0  28727-4 0  9993
2 00902  90.2012  52.2578 0019227  25.0835 346.6045 13.52757788715510
LCS 1                   
1 01361U 65034C   23218.44241423  .00000012  00000+0  51124-3 0  9997
2 01361  32.1394 139.9706 0007113 280.3345  79.6350  9.89303516106660
TEMPSAT 1               
1 01512U 65065E   23220.76472002  .00000045  00000+0  73580-4 0  9993
2 01512  89.9329 215.6636 0068137 299.5440 234.9642 13.33483204820986
CALSPHERE 4A            
1 01520U 65065H   23220.08486440  .00000121  00000+0  21531-3 0  9991
2 01520  89.9700 129.3859 0068893 167.1332 261.1401 13.35980060823695
OPS 5712 (P/L 160)      
1 02826U 67053A   23221.50300250  .00005257  00000+0  12491-2 0  9991
2 02826  69.9281  25.8280 0004084 128.6485 231.5017 14.54397227913927
OPS 5712 (P/L 153)      
1 02874U 67053H   23220.66384497  .00000072  00000+0  90661-4 0  9992
2 02874  69.9725 191.4480 0004875 121.2655 238.8928 13.96494848861555
SURCAL 150B             
1 02909U 67053J   23221.16204293  .00010368  00000+0  17065-2 0  9996
2 02909  69.9463 353.7791 0002754 175.1397 184.9775 14.70751780925361
RIGIDSPHERE 2 (LCS 4)   
1 05398U 71067E   23221.09457382  .00000903  00000+0  30374-3 0  9995
2 05398  87.6173 267.6319 0064852  87.2659 273.5960 14.34951224724364
COSMOS 2493 (SKRL-756 1)
1 39490U 13078A   23221.39984759  .00003353  00000+0  33078-3 0  9995
2 39490  82.4175 193.0401 0017412 142.5187 217.7250 14.91608223522273
COSMOS 2494 (SKRL-756 2)
1 39491U 13078B   23221.35155530  .00003394  00000+0  32083-3 0  9999
2 39491  82.4177 185.9095 0022273 118.0619 242.2857 14.93229332522643
